{
  "norad_id": 64488,
  "name": "STARLINK-34217",
  "history": [
    {
      "epoch": "2026-03-28T05:18:45.502272Z",
      "apogee_km": 475.98447586594284,
      "perigee_km": 474.39724513345027,
      "latitude_deg": -7.818901399992266e-06,
      "longitude_deg": 125.52588336084314,
      "height_km": 476.31336753815117,
      "semi_major_axis_km": 6853.327860499696,
      "eccentricity": 0.0001158,
      "inclination_deg": 53.1613,
      "raan_deg": 30.8604,
      "arg_perigee_deg": 106.4004,
      "mean_anomaly_deg": 253.7124,
      "mean_motion_rev_day": 15.30208108
    },
    {
      "epoch": "2026-03-29T03:15:30.029472Z",
      "apogee_km": 475.99874460810315,
      "perigee_km": 474.31283458186226,
      "latitude_deg": 3.427816294730065e-05,
      "longitude_deg": 151.19320653434613,
      "height_km": 476.3533365261079,
      "semi_major_axis_km": 6853.292789594982,
      "eccentricity": 0.000123,
      "inclination_deg": 53.1602,
      "raan_deg": 26.6145,
      "arg_perigee_deg": 110.7964,
      "mean_anomaly_deg": 249.3169,
      "mean_motion_rev_day": 15.30219854
    },
    {
      "epoch": "2026-03-30T01:12:15.037920Z",
      "apogee_km": 476.053932899561,
      "perigee_km": 474.4021348590959,
      "latitude_deg": 7.3539807394129835e-06,
      "longitude_deg": 176.85806832619798,
      "height_km": 476.26457187623686,
      "semi_major_axis_km": 6853.365033879329,
      "eccentricity": 0.00012051,
      "inclination_deg": 53.1607,
      "raan_deg": 22.3682,
      "arg_perigee_deg": 99.6385,
      "mean_anomaly_deg": 260.4752,
      "mean_motion_rev_day": 15.30195658
    },
    {
      "epoch": "2026-03-30T12:10:37.525728Z",
      "apogee_km": 476.1182097130177,
      "perigee_km": 474.215595483578,
      "latitude_deg": 1.815153149369551e-05,
      "longitude_deg": 9.688736163950951,
      "height_km": 476.05385164031736,
      "semi_major_axis_km": 6853.303902598298,
      "eccentricity": 0.00013881,
      "inclination_deg": 53.1597,
      "raan_deg": 20.2432,
      "arg_perigee_deg": 89.3414,
      "mean_anomaly_deg": 270.7746,
      "mean_motion_rev_day": 15.30216132
    },
    {
      "epoch": "2026-03-30T20:00:53.388864Z",
      "apogee_km": 475.98342147986386,
      "perigee_km": 474.31286469338465,
      "latitude_deg": 1.6375835588907235e-05,
      "longitude_deg": -109.71654571597075,
      "height_km": 476.17352742096773,
      "semi_major_axis_km": 6853.285143086624,
      "eccentricity": 0.00012188,
      "inclination_deg": 53.1599,
      "raan_deg": 18.7259,
      "arg_perigee_deg": 98.7612,
      "mean_anomaly_deg": 261.3527,
      "mean_motion_rev_day": 15.30222415
    },
    {
      "epoch": "2026-03-31T19:31:41.683296Z",
      "apogee_km": 476.08886899924437,
      "perigee_km": 474.2645168941817,
      "latitude_deg": -1.957685780827438e-06,
      "longitude_deg": -107.93384648667585,
      "height_km": 475.9605727827199,
      "semi_major_axis_km": 6853.313692946713,
      "eccentricity": 0.0001331,
      "inclination_deg": 53.1605,
      "raan_deg": 14.1755,
      "arg_perigee_deg": 82.8088,
      "mean_anomaly_deg": 277.3064,
      "mean_motion_rev_day": 15.30212853
    },
    {
      "epoch": "2026-04-01T11:12:13.375872Z",
      "apogee_km": 475.9438282582396,
      "perigee_km": 474.3977220241677,
      "latitude_deg": 9.280867002586528e-07,
      "longitude_deg": 13.255035416335016,
      "height_km": 475.73244945147894,
      "semi_major_axis_km": 6853.307775141204,
      "eccentricity": 0.0001128,
      "inclination_deg": 53.1597,
      "raan_deg": 11.1402,
      "arg_perigee_deg": 64.1779,
      "mean_anomaly_deg": 295.9338,
      "mean_motion_rev_day": 15.30214835
    },
    {
      "epoch": "2026-04-02T18:33:16.539840Z",
      "apogee_km": 475.77115564582255,
      "perigee_km": 474.430662310825,
      "latitude_deg": -3.6674494544812506e-05,
      "longitude_deg": -104.3606094463981,
      "height_km": 475.67228227160166,
      "semi_major_axis_km": 6853.2379089783235,
      "eccentricity": 9.78e-05,
      "inclination_deg": 53.1606,
      "raan_deg": 5.0753,
      "arg_perigee_deg": 60.7642,
      "mean_anomaly_deg": 299.3456,
      "mean_motion_rev_day": 15.30238235
    },
    {
      "epoch": "2026-04-02T21:41:22.956288Z",
      "apogee_km": 476.2922441419396,
      "perigee_km": 474.09780722731557,
      "latitude_deg": 4.030353807848289e-05,
      "longitude_deg": -152.1234418302889,
      "height_km": 475.06588058363354,
      "semi_major_axis_km": 6853.332025684627,
      "eccentricity": 0.0001601,
      "inclination_deg": 53.1604,
      "raan_deg": 4.4679,
      "arg_perigee_deg": 20.4274,
      "mean_anomaly_deg": 339.6791,
      "mean_motion_rev_day": 15.30206713
    }
  ]
}